[{"OBJECT_NAME":"ICEYE-X43","OBJECT_ID":"2024-149BZ","EPOCH":"2026-03-09T22:37:06.906720","MEAN_MOTION":14.99337202,"ECCENTRICITY":0.00024583,"INCLINATION":97.6823,"RA_OF_ASC_NODE":147.2527,"ARG_OF_PERICENTER":59.9226,"MEAN_ANOMALY":300.2241,"EPHEMERIS_TYPE":0,"CLASSIFICATION_TYPE":"U","NORAD_CAT_ID":60539,"ELEMENT_SET_NO":999,"REV_AT_EPOCH":8524,"BSTAR":0.00036668005,"MEAN_MOTION_DOT":4.424e-5,"MEAN_MOTION_DDOT":0},{"OBJECT_NAME":"STARLINK-32821","OBJECT_ID":"2025-037B","EPOCH":"2026-03-09T23:33:38.449728","MEAN_MOTION":14.98375397,"ECCENTRICITY":0.00045199,"INCLINATION":70.0079,"RA_OF_ASC_NODE":353.8116,"ARG_OF_PERICENTER":200.8938,"MEAN_ANOMALY":159.2037,"EPHEMERIS_TYPE":0,"CLASSIFICATION_TYPE":"U","NORAD_CAT_ID":63078,"ELEMENT_SET_NO":999,"REV_AT_EPOCH":5863,"BSTAR":0.003431592,"MEAN_MOTION_DOT":0.00041146,"MEAN_MOTION_DDOT":0}]
